{"type": "FeatureCollection", "features": [ {"type": "Feature", "properties": {"norad_id": 66052, "name": "HRC MONOBLOCK CAMERA", "group": "stations", "lat": -11.899299432626375, "lon": 61.466476072214405, "alt_km": 403.9509569252532, "timestamp": "2025-12-26T20:30:44.734601+00:00", "meta": {"OBJECT_NAME": "HRC MONOBLOCK CAMERA", "OBJECT_ID": "1998-067XR", "EPOCH": "2025-12-26T14:24:31.277664", "MEAN_MOTION": 15.55102813, "ECCENTRICITY": 0.00019152, "INCLINATION": 51.6303, "RA_OF_ASC_NODE": 72.3477, "ARG_OF_PERICENTER": 253.6034, "MEAN_ANOMALY": 106.4747, "EPHEMERIS_TYPE": 0, "CLASSIFICATION_TYPE": "U", "NORAD_CAT_ID": 66052, "ELEMENT_SET_NO": 999, "REV_AT_EPOCH": 1099, "BSTAR": 0.00053583811, "MEAN_MOTION_DOT": 0.00036444, "MEAN_MOTION_DDOT": 0}, "tle": {"line1": "1 66052U 98067XR  25360.60036201  .00036444  00000+0  53584-3 0  9991", "line2": "2 66052  51.6303  72.3477 0001915 253.6034 106.4747 15.55102813 10997"}}, "geometry": {"type": "Point", "coordinates": [61.466476072214405, -11.899299432626375]}}, {"type": "Feature", "properties": {"norad_id": 66174, "name": "HTV-X1", "group": "stations", "lat": -10.68841277141089, "lon": 63.97268119249388, "alt_km": 417.4815111795733, "timestamp": "2025-12-26T20:30:44.734611+00:00", "meta": {"OBJECT_NAME": "HTV-X1", "OBJECT_ID": "2025-241A", "EPOCH": "2025-12-26T12:50:01.193856", "MEAN_MOTION": 15.49844261, "ECCENTRICITY": 0.00032307, "INCLINATION": 51.632, "RA_OF_ASC_NODE": 74.1581, "ARG_OF_PERICENTER": 305.5588, "MEAN_ANOMALY": 54.5099, "EPHEMERIS_TYPE": 0, "CLASSIFICATION_TYPE": "U", "NORAD_CAT_ID": 66174, "ELEMENT_SET_NO": 999, "REV_AT_EPOCH": 51, "BSTAR": 0.00025381537, "MEAN_MOTION_DOT": 0.00013978, "MEAN_MOTION_DDOT": 0}, "tle": {"line1": "1 66174U 25241A   25360.53473604  .00013978  00000+0  25382-3 0  9996", "line2": "2 66174  51.6320  74.1581 0003230 305.5588  54.5099 15.49844261   513"}}, "geometry": {"type": "Point", "coordinates": [63.97268119249388, -10.68841277141089]}}, {"type": "Feature", "properties": {"norad_id": 66515, "name": "SZ-21 MODULE", "group": "stations", "lat": 4.841145790072759, "lon": -64.60457506616393, "alt_km": 374.5239515227722, "timestamp": "2025-12-26T20:30:44.734620+00:00", "meta": {"OBJECT_NAME": "SZ-21 MODULE", "OBJECT_ID": "2025-246C", "EPOCH": "2025-12-25T04:36:53.601984", "MEAN_MOTION": 15.63137537, "ECCENTRICITY": 0.0004589, "INCLINATION": 41.4767, "RA_OF_ASC_NODE": 300.0489, "ARG_OF_PERICENTER": 327.9877, "MEAN_ANOMALY": 32.0683, "EPHEMERIS_TYPE": 0, "CLASSIFICATION_TYPE": "U", "NORAD_CAT_ID": 66515, "ELEMENT_SET_NO": 999, "REV_AT_EPOCH": 639, "BSTAR": 0.00031272, "MEAN_MOTION_DOT": 0.00029146, "MEAN_MOTION_DDOT": 0}, "tle": {"line1": "1 66515U 25246C   25359.19228706  .00029146  00000+0  31272-3 0  9990", "line2": "2 66515  41.4767 300.0489 0004589 327.9877  32.0683 15.63137537  6398"}}, "geometry": {"type": "Point", "coordinates": [-64.60457506616393, 4.841145790072759]}}, {"type": "Feature", "properties": {"norad_id": 66645, "name": "SHENZHOU-22", "group": "stations", "lat": -39.3330816509906, "lon": -137.1371167146653, "alt_km": 395.3618503270063, "timestamp": "2025-12-26T20:30:44.734630+00:00", "meta": {"OBJECT_NAME": "SHENZHOU-22", "OBJECT_ID": "2025-272A", "EPOCH": "2025-12-26T05:27:30.670848", "MEAN_MOTION": 15.59708409, "ECCENTRICITY": 0.00085179, "INCLINATION": 41.468, "RA_OF_ASC_NODE": 294.7909, "ARG_OF_PERICENTER": 149.5046, "MEAN_ANOMALY": 210.6289, "EPHEMERIS_TYPE": 0, "CLASSIFICATION_TYPE": "U", "NORAD_CAT_ID": 66645, "ELEMENT_SET_NO": 999, "REV_AT_EPOCH": 26598, "BSTAR": 0.00023601706, "MEAN_MOTION_DOT": 0.00019151, "MEAN_MOTION_DDOT": 0}, "tle": {"line1": "1 66645U 25272A   25360.22743832  .00019151  00000+0  23602-3 0  9994", "line2": "2 66645  41.4680 294.7909 0008517 149.5046 210.6289 15.59708409265988"}}, "geometry": {"type": "Point", "coordinates": [-137.1371167146653, -39.3330816509906]}}, {"type": "Feature", "properties": {"norad_id": 66664, "name": "SOYUZ-MS 28", "group": "stations", "lat": -10.688411418921982, "lon": 63.972682313240334, "alt_km": 417.4815110765485, "timestamp": "2025-12-26T20:30:44.734638+00:00", "meta": {"OBJECT_NAME": "SOYUZ-MS 28", "OBJECT_ID": "2025-275A", "EPOCH": "2025-12-26T12:50:01.193856", "MEAN_MOTION": 15.49844261, "ECCENTRICITY": 0.00032307, "INCLINATION": 51.632, "RA_OF_ASC_NODE": 74.1581, "ARG_OF_PERICENTER": 305.5588, "MEAN_ANOMALY": 54.5099, "EPHEMERIS_TYPE": 0, "CLASSIFICATION_TYPE": "U", "NORAD_CAT_ID": 66664, "ELEMENT_SET_NO": 999, "REV_AT_EPOCH": 128, "BSTAR": 0.00025381537, "MEAN_MOTION_DOT": 0.00013978, "MEAN_MOTION_DDOT": 0}, "tle": {"line1": "1 66664U 25275A   25360.53473604  .00013978  00000+0  25382-3 0  9997", "line2": "2 66664  51.6320  74.1581 0003230 305.5588  54.5099 15.49844261  1282"}}, "geometry": {"type": "Point", "coordinates": [63.972682313240334, -10.688411418921982]}}, {"type": "Feature", "properties": {"norad_id": 66906, "name": "1998-067XS", "group": "stations", "lat": 50.52014964877215, "lon": 146.48113783698355, "alt_km": 407.6163554091763, "timestamp": "2025-12-26T20:30:44.734648+00:00", "meta": {"OBJECT_NAME": "1998-067XS", "OBJECT_ID": "1998-067XS", "EPOCH": "2025-12-26T10:53:34.755072", "MEAN_MOTION": 15.51311404, "ECCENTRICITY": 0.00026478, "INCLINATION": 51.6324, "RA_OF_ASC_NODE": 74.3703, "ARG_OF_PERICENTER": 272.6697, "MEAN_ANOMALY": 87.3989, "EPHEMERIS_TYPE": 0, "CLASSIFICATION_TYPE": "U", "NORAD_CAT_ID": 66906, "ELEMENT_SET_NO": 999, "REV_AT_EPOCH": 374, "BSTAR": 0.00044869141, "MEAN_MOTION_DOT": 0.00026457, "MEAN_MOTION_DDOT": 0}, "tle": {"line1": "1 66906U 98067XS  25360.45387448  .00026457  00000+0  44869-3 0  9993", "line2": "2 66906  51.6324  74.3703 0002647 272.6697  87.3989 15.51311404  3745"}}, "geometry": {"type": "Point", "coordinates": [146.48113783698355, 50.52014964877215]}}, {"type": "Feature", "properties": {"norad_id": 66907, "name": "1998-067XT", "group": "stations", "lat": 11.771079713012, "lon": -117.30032638835905, "alt_km": 408.59623545929844, "timestamp": "2025-12-26T20:30:44.734657+00:00", "meta": {"OBJECT_NAME": "1998-067XT", "OBJECT_ID": "1998-067XT", "EPOCH": "2025-12-26T12:05:04.890912", "MEAN_MOTION": 15.53165234, "ECCENTRICITY": 0.00038158, "INCLINATION": 51.6314, "RA_OF_ASC_NODE": 73.9516, "ARG_OF_PERICENTER": 309.8326, "MEAN_ANOMALY": 50.2329, "EPHEMERIS_TYPE": 0, "CLASSIFICATION_TYPE": "U", "NORAD_CAT_ID": 66907, "ELEMENT_SET_NO": 999, "REV_AT_EPOCH": 375, "BSTAR": 0.00096731691, "MEAN_MOTION_DOT": 0.00061851, "MEAN_MOTION_DDOT": 0}, "tle": {"line1": "1 66907U 98067XT  25360.50352883  .00061851  00000+0  96732-3 0  9998", "line2": "2 66907  51.6314  73.9516 0003815 309.8326  50.2329 15.53165234  3750"}}, "geometry": {"type": "Point", "coordinates": [-117.30032638835905, 11.771079713012]}}, {"type": "Feature", "properties": {"norad_id": 66908, "name": "1998-067XU", "group": "stations", "lat": 6.7422865110268875, "lon": -113.18623744196047, "alt_km": 408.96273092289084, "timestamp": "2025-12-26T20:30:44.734666+00:00", "meta": {"OBJECT_NAME": "1998-067XU", "OBJECT_ID": "1998-067XU", "EPOCH": "2025-12-26T12:03:26.030304", "MEAN_MOTION": 15.53224138, "ECCENTRICITY": 0.00038598, "INCLINATION": 51.6314, "RA_OF_ASC_NODE": 73.9431, "ARG_OF_PERICENTER": 307.9643, "MEAN_ANOMALY": 52.0999, "EPHEMERIS_TYPE": 0, "CLASSIFICATION_TYPE": "U", "NORAD_CAT_ID": 66908, "ELEMENT_SET_NO": 999, "REV_AT_EPOCH": 375, "BSTAR": 0.00089246936, "MEAN_MOTION_DOT": 0.00057117, "MEAN_MOTION_DDOT": 0}, "tle": {"line1": "1 66908U 98067XU  25360.50238461  .00057117  00000+0  89247-3 0  9997", "line2": "2 66908  51.6314  73.9431 0003859 307.9643  52.0999 15.53224138  3758"}}, "geometry": {"type": "Point", "coordinates": [-113.18623744196047, 6.7422865110268875]}}, {"type": "Feature", "properties": {"norad_id": 66909, "name": "SILVERSAT", "group": "stations", "lat": -1.6209260906692713, "lon": -106.54877166574708, "alt_km": 409.01899407742076, "timestamp": "2025-12-26T20:30:44.734675+00:00", "meta": {"OBJECT_NAME": "SILVERSAT", "OBJECT_ID": "1998-067XV", "EPOCH": "2025-12-26T12:00:46.912608", "MEAN_MOTION": 15.53512588, "ECCENTRICITY": 0.00037731, "INCLINATION": 51.6312, "RA_OF_ASC_NODE": 73.9315, "ARG_OF_PERICENTER": 313.4073, "MEAN_ANOMALY": 46.6603, "EPHEMERIS_TYPE": 0, "CLASSIFICATION_TYPE": "U", "NORAD_CAT_ID": 66909, "ELEMENT_SET_NO": 999, "REV_AT_EPOCH": 375, "BSTAR": 0.0010737482, "MEAN_MOTION_DOT": 0.00069652, "MEAN_MOTION_DDOT": 0}, "tle": {"line1": "1 66909U 98067XV  25360.50054297  .00069652  00000+0  10737-2 0  9995", "line2": "2 66909  51.6312  73.9315 0003773 313.4073  46.6603 15.53512588  3752"}}, "geometry": {"type": "Point", "coordinates": [-106.54877166574708, -1.6209260906692713]}}, {"type": "Feature", "properties": {"norad_id": 66910, "name": "1998-067XW", "group": "stations", "lat": -8.405761592351425, "lon": -101.12948311572553, "alt_km": 408.58846893380814, "timestamp": "2025-12-26T20:30:44.734684+00:00", "meta": {"OBJECT_NAME": "1998-067XW", "OBJECT_ID": "1998-067XW", "EPOCH": "2025-12-26T15:03:47.087712", "MEAN_MOTION": 15.53433211, "ECCENTRICITY": 0.00037023, "INCLINATION": 51.6299, "RA_OF_ASC_NODE": 73.2784, "ARG_OF_PERICENTER": 284.4746, "MEAN_ANOMALY": 75.5833, "EPHEMERIS_TYPE": 0, "CLASSIFICATION_TYPE": "U", "NORAD_CAT_ID": 66910, "ELEMENT_SET_NO": 999, "REV_AT_EPOCH": 377, "BSTAR": 0.0010494824, "MEAN_MOTION_DOT": 0.00067854, "MEAN_MOTION_DDOT": 0}, "tle": {"line1": "1 66910U 98067XW  25360.62762833  .00067854  00000+0  10495-2 0  9995", "line2": "2 66910  51.6299  73.2784 0003702 284.4746  75.5833 15.53433211  3770"}}, "geometry": {"type": "Point", "coordinates": [-101.12948311572553, -8.405761592351425]}}]}